{
  "type": "FeatureCollection",
  "features": [
    {
      "type": "Feature",
      "properties": {
        "norad_id": 33860,
        "name": "IRIDIUM 33 DEB",
        "group": "iridium-33-debris",
        "lat": -32.3418305053067,
        "lon": 22.179258920132654,
        "alt_km": 670.7597339450913,
        "timestamp": "2025-12-18T23:35:49.447095+00:00",
        "meta_object_name": "IRIDIUM 33 DEB",
        "meta_object_id": "1997-051AD",
        "meta_epoch": "2025-12-18T14:31:05.174400",
        "meta_mean_motion": 14.67436925,
        "meta_eccentricity": 0.00067189,
        "meta_inclination": 86.3829,
        "meta_ra_of_asc_node": 24.6422,
        "meta_arg_of_pericenter": 336.0617,
        "meta_mean_anomaly": 154.5201,
        "meta_ephemeris_type": 0,
        "meta_classification_type": "U",
        "meta_norad_cat_id": 33860,
        "meta_element_set_no": 999,
        "meta_rev_at_epoch": 88808,
        "meta_bstar": 0.00081514555,
        "meta_mean_motion_dot": 4.635e-05,
        "meta_mean_motion_ddot": 0,
        "tle_line1": "1 33860U 97051AD  25352.60492100  .00004635  00000+0  81515-3 0  9991",
        "tle_line2": "2 33860  86.3829  24.6422 0006718 336.0617 154.5201 14.67436925888083"
      },
      "geometry": {
        "type": "Point",
        "coordinates": [
          22.179258920132654,
          -32.3418305053067
        ]
      }
    },
    {
      "type": "Feature",
      "properties": {
        "norad_id": 33862,
        "name": "IRIDIUM 33 DEB",
        "group": "iridium-33-debris",
        "lat": 50.39186130362452,
        "lon": 39.13019307393339,
        "alt_km": 620.7087319883394,
        "timestamp": "2025-12-18T23:35:49.447107+00:00",
        "meta_object_name": "IRIDIUM 33 DEB",
        "meta_object_id": "1997-051AF",
        "meta_epoch": "2025-12-18T14:17:29.205888",
        "meta_mean_motion": 14.69565886,
        "meta_eccentricity": 0.00528917,
        "meta_inclination": 86.4087,
        "meta_ra_of_asc_node": 34.9485,
        "meta_arg_of_pericenter": 49.5789,
        "meta_mean_anomaly": 111.0482,
        "meta_ephemeris_type": 0,
        "meta_classification_type": "U",
        "meta_norad_cat_id": 33862,
        "meta_element_set_no": 999,
        "meta_rev_at_epoch": 88909,
        "meta_bstar": 0.0010173542,
        "meta_mean_motion_dot": 6.195e-05,
        "meta_mean_motion_ddot": 0,
        "tle_line1": "1 33862U 97051AF  25352.59547692  .00006195  00000+0  10174-2 0  9993",
        "tle_line2": "2 33862  86.4087  34.9485 0052891  49.5789 111.0482 14.69565886889096"
      },
      "geometry": {
        "type": "Point",
        "coordinates": [
          39.13019307393339,
          50.39186130362452
        ]
      }
    },
    {
      "type": "Feature",
      "properties": {
        "norad_id": 33866,
        "name": "IRIDIUM 33 DEB",
        "group": "iridium-33-debris",
        "lat": -24.104135019140326,
        "lon": -87.94673306426408,
        "alt_km": 774.1960604939768,
        "timestamp": "2025-12-18T23:35:49.447119+00:00",
        "meta_object_name": "IRIDIUM 33 DEB",
        "meta_object_id": "1997-051AK",
        "meta_epoch": "2025-12-18T12:36:52.621056",
        "meta_mean_motion": 14.25292345,
        "meta_eccentricity": 0.01148558,
        "meta_inclination": 86.3001,
        "meta_ra_of_asc_node": 90.5879,
        "meta_arg_of_pericenter": 143.0415,
        "meta_mean_anomaly": 233.3292,
        "meta_ephemeris_type": 0,
        "meta_classification_type": "U",
        "meta_norad_cat_id": 33866,
        "meta_element_set_no": 999,
        "meta_rev_at_epoch": 86893,
        "meta_bstar": 0.00045694828,
        "meta_mean_motion_dot": 1.172e-05,
        "meta_mean_motion_ddot": 0,
        "tle_line1": "1 33866U 97051AK  25352.52560904  .00001172  00000+0  45695-3 0  9998",
        "tle_line2": "2 33866  86.3001  90.5879 0114855 143.0415 233.3292 14.25292345868931"
      },
      "geometry": {
        "type": "Point",
        "coordinates": [
          -87.94673306426408,
          -24.104135019140326
        ]
      }
    },
    {
      "type": "Feature",
      "properties": {
        "norad_id": 33867,
        "name": "IRIDIUM 33 DEB",
        "group": "iridium-33-debris",
        "lat": -27.965836590339038,
        "lon": -15.102144108365108,
        "alt_km": 339.17466367181714,
        "timestamp": "2025-12-18T23:35:49.447130+00:00",
        "meta_object_name": "IRIDIUM 33 DEB",
        "meta_object_id": "1997-051AL",
        "meta_epoch": "2025-12-18T11:33:15.397344",
        "meta_mean_motion": 15.79273416,
        "meta_eccentricity": 0.00134538,
        "meta_inclination": 86.3642,
        "meta_ra_of_asc_node": 347.0978,
        "meta_arg_of_pericenter": 92.8798,
        "meta_mean_anomaly": 267.4018,
        "meta_ephemeris_type": 0,
        "meta_classification_type": "U",
        "meta_norad_cat_id": 33867,
        "meta_element_set_no": 999,
        "meta_rev_at_epoch": 89601,
        "meta_bstar": 0.007023666,
        "meta_mean_motion_dot": 0.014139,
        "meta_mean_motion_ddot": 0,
        "tle_line1": "1 33867U 97051AL  25352.48142821  .01413900  00000+0  70237-2 0  9994",
        "tle_line2": "2 33867  86.3642 347.0978 0013453  92.8798 267.4018 15.79273416896012"
      },
      "geometry": {
        "type": "Point",
        "coordinates": [
          -15.102144108365108,
          -27.965836590339038
        ]
      }
    },
    {
      "type": "Feature",
      "properties": {
        "norad_id": 33870,
        "name": "IRIDIUM 33 DEB",
        "group": "iridium-33-debris",
        "lat": 43.15820946681755,
        "lon": 58.993150071155824,
        "alt_km": 742.14466718318,
        "timestamp": "2025-12-18T23:35:49.447141+00:00",
        "meta_object_name": "IRIDIUM 33 DEB",
        "meta_object_id": "1997-051AP",
        "meta_epoch": "2025-12-18T05:23:59.703648",
        "meta_mean_motion": 14.45879643,
        "meta_eccentricity": 0.00220517,
        "meta_inclination": 86.3746,
        "meta_ra_of_asc_node": 55.9098,
        "meta_arg_of_pericenter": 160.4911,
        "meta_mean_anomaly": 258.9692,
        "meta_ephemeris_type": 0,
        "meta_classification_type": "U",
        "meta_norad_cat_id": 33870,
        "meta_element_set_no": 999,
        "meta_rev_at_epoch": 88216,
        "meta_bstar": 0.00057936504,
        "meta_mean_motion_dot": 2.083e-05,
        "meta_mean_motion_ddot": 0,
        "tle_line1": "1 33870U 97051AP  25352.22499657  .00002083  00000+0  57937-3 0  9990",
        "tle_line2": "2 33870  86.3746  55.9098 0022051 160.4911 258.9692 14.45879643882162"
      },
      "geometry": {
        "type": "Point",
        "coordinates": [
          58.993150071155824,
          43.15820946681755
        ]
      }
    },
    {
      "type": "Feature",
      "properties": {
        "norad_id": 33881,
        "name": "IRIDIUM 33 DEB",
        "group": "iridium-33-debris",
        "lat": 26.414126928626903,
        "lon": -77.77029186846197,
        "alt_km": 659.5163931710886,
        "timestamp": "2025-12-18T23:35:49.447152+00:00",
        "meta_object_name": "IRIDIUM 33 DEB",
        "meta_object_id": "1997-051BA",
        "meta_epoch": "2025-12-18T14:56:51.081216",
        "meta_mean_motion": 14.56675983,
        "meta_eccentricity": 0.00614723,
        "meta_inclination": 86.3861,
        "meta_ra_of_asc_node": 104.1853,
        "meta_arg_of_pericenter": 155.6994,
        "meta_mean_anomaly": 269.0173,
        "meta_ephemeris_type": 0,
        "meta_classification_type": "U",
        "meta_norad_cat_id": 33881,
        "meta_element_set_no": 999,
        "meta_rev_at_epoch": 87586,
        "meta_bstar": 0.0015701969,
        "meta_mean_motion_dot": 7.214e-05,
        "meta_mean_motion_ddot": 0,
        "tle_line1": "1 33881U 97051BA  25352.62281344  .00007214  00000+0  15702-2 0  9992",
        "tle_line2": "2 33881  86.3861 104.1853 0061472 155.6994 269.0173 14.56675983875864"
      },
      "geometry": {
        "type": "Point",
        "coordinates": [
          -77.77029186846197,
          26.414126928626903
        ]
      }
    },
    {
      "type": "Feature",
      "properties": {
        "norad_id": 33884,
        "name": "IRIDIUM 33 DEB",
        "group": "iridium-33-debris",
        "lat": -28.199513960270078,
        "lon": -171.04865538318757,
        "alt_km": 643.2083078588976,
        "timestamp": "2025-12-18T23:35:49.447163+00:00",
        "meta_object_name": "IRIDIUM 33 DEB",
        "meta_object_id": "1997-051BD",
        "meta_epoch": "2025-12-18T11:58:04.433088",
        "meta_mean_motion": 14.77541028,
        "meta_eccentricity": 0.00092581,
        "meta_inclination": 86.3692,
        "meta_ra_of_asc_node": 7.219,
        "meta_arg_of_pericenter": 301.5803,
        "meta_mean_anomaly": 210.9745,
        "meta_ephemeris_type": 0,
        "meta_classification_type": "U",
        "meta_norad_cat_id": 33884,
        "meta_element_set_no": 999,
        "meta_rev_at_epoch": 88932,
        "meta_bstar": 0.0012713868,
        "meta_mean_motion_dot": 9.106e-05,
        "meta_mean_motion_ddot": 0,
        "tle_line1": "1 33884U 97051BD  25352.49866242  .00009106  00000+0  12714-2 0  9998",
        "tle_line2": "2 33884  86.3692   7.2190 0009258 301.5803 210.9745 14.77541028889322"
      },
      "geometry": {
        "type": "Point",
        "coordinates": [
          -171.04865538318757,
          -28.199513960270078
        ]
      }
    }
  ]
}